{
  "norad_id": 64750,
  "name": "STARLINK-34531",
  "history": [
    {
      "epoch": "2026-04-11T20:56:30.627744Z",
      "apogee_km": 476.07099989740345,
      "perigee_km": 474.2247249554657,
      "latitude_deg": -3.342396762893803e-05,
      "longitude_deg": -127.39746996244918,
      "height_km": 476.27275133053575,
      "semi_major_axis_km": 6853.284862426434,
      "eccentricity": 0.0001347,
      "inclination_deg": 53.1602,
      "raan_deg": 26.816,
      "arg_perigee_deg": 104.2243,
      "mean_anomaly_deg": 255.8907,
      "mean_motion_rev_day": 15.30222509
    },
    {
      "epoch": "2026-04-13T04:17:32.842176Z",
      "apogee_km": 475.69236391100185,
      "perigee_km": 474.58268170026804,
      "latitude_deg": 4.5202510919820955e-05,
      "longitude_deg": 114.98863720038746,
      "height_km": 476.01420438039145,
      "semi_major_axis_km": 6853.274522805635,
      "eccentricity": 8.096e-05,
      "inclination_deg": 53.161,
      "raan_deg": 20.7488,
      "arg_perigee_deg": 87.7149,
      "mean_anomaly_deg": 272.3945,
      "mean_motion_rev_day": 15.30225972
    },
    {
      "epoch": "2026-04-14T11:38:36.850272Z",
      "apogee_km": 476.208691090058,
      "perigee_km": 474.2203967401374,
      "latitude_deg": -3.396714397213727e-07,
      "longitude_deg": -2.636540388099014,
      "height_km": 476.3000364303669,
      "semi_major_axis_km": 6853.351543915098,
      "eccentricity": 0.00014506,
      "inclination_deg": 53.1597,
      "raan_deg": 14.6779,
      "arg_perigee_deg": 100.8811,
      "mean_anomaly_deg": 259.2353,
      "mean_motion_rev_day": 15.30200176
    },
    {
      "epoch": "2026-04-15T11:09:24.782688Z",
      "apogee_km": 476.287740328019,
      "perigee_km": 474.1361999523342,
      "latitude_deg": 6.733284574830697e-05,
      "longitude_deg": -0.8535641819373142,
      "height_km": 476.3746709321682,
      "semi_major_axis_km": 6853.348970140177,
      "eccentricity": 0.00015697,
      "inclination_deg": 53.1623,
      "raan_deg": 10.1262,
      "arg_perigee_deg": 104.2466,
      "mean_anomaly_deg": 255.871,
      "mean_motion_rev_day": 15.30201038
    },
    {
      "epoch": "2026-04-16T10:40:12.751392Z",
      "apogee_km": 476.3700291549194,
      "perigee_km": 474.044004195659,
      "latitude_deg": -5.123387789752433e-05,
      "longitude_deg": 0.9317218690507706,
      "height_km": 476.19504912876187,
      "semi_major_axis_km": 6853.344016675289,
      "eccentricity": 0.0001697,
      "inclination_deg": 53.1613,
      "raan_deg": 5.5771,
      "arg_perigee_deg": 94.4581,
      "mean_anomaly_deg": 265.6613,
      "mean_motion_rev_day": 15.30202697
    },
    {
      "epoch": "2026-04-17T10:11:00.187872Z",
      "apogee_km": 475.4007420482658,
      "perigee_km": 474.9174476076596,
      "latitude_deg": -6.360012685000942e-05,
      "longitude_deg": 2.7172103405830517,
      "height_km": 476.2835283859724,
      "semi_major_axis_km": 6853.296094827962,
      "eccentricity": 3.526e-05,
      "inclination_deg": 53.1622,
      "raan_deg": 1.0259,
      "arg_perigee_deg": 201.8265,
      "mean_anomaly_deg": 158.272,
      "mean_motion_rev_day": 15.30218747
    },
    {
      "epoch": "2026-04-18T09:41:48.196320Z",
      "apogee_km": 475.446268868418,
      "perigee_km": 474.9552957496935,
      "latitude_deg": -2.222231396522352e-05,
      "longitude_deg": 4.500948244372787,
      "height_km": 476.2706892237395,
      "semi_major_axis_km": 6853.337782309056,
      "eccentricity": 3.582e-05,
      "inclination_deg": 53.1594,
      "raan_deg": 356.4753,
      "arg_perigee_deg": 134.0155,
      "mean_anomaly_deg": 226.0875,
      "mean_motion_rev_day": 15.30204785
    },
    {
      "epoch": "2026-04-19T09:12:35.105760Z",
      "apogee_km": 476.7111002187394,
      "perigee_km": 473.47939002123076,
      "latitude_deg": -3.9739508006807065e-05,
      "longitude_deg": 6.290132861894446,
      "height_km": 475.57106526251573,
      "semi_major_axis_km": 6853.232245119985,
      "eccentricity": 0.00023578,
      "inclination_deg": 53.1614,
      "raan_deg": 351.9256,
      "arg_perigee_deg": 74.8982,
      "mean_anomaly_deg": 285.2279,
      "mean_motion_rev_day": 15.30240132
    },
    {
      "epoch": "2026-04-20T08:43:24.416256Z",
      "apogee_km": 476.3120428842403,
      "perigee_km": 474.29822744724333,
      "latitude_deg": -2.922264948022575e-05,
      "longitude_deg": 8.069305479120978,
      "height_km": 476.11369809264437,
      "semi_major_axis_km": 6853.442135165742,
      "eccentricity": 0.00014692,
      "inclination_deg": 53.1586,
      "raan_deg": 347.3759,
      "arg_perigee_deg": 84.924,
      "mean_anomaly_deg": 275.1928,
      "mean_motion_rev_day": 15.30169836
    },
    {
      "epoch": "2026-04-21T01:57:59.954688Z",
      "apogee_km": 476.23464760254865,
      "perigee_km": 474.2190732911913,
      "latitude_deg": 8.467742494834366e-06,
      "longitude_deg": 105.37580186826378,
      "height_km": 476.065345736202,
      "semi_major_axis_km": 6853.36386044687,
      "eccentricity": 0.00014705,
      "inclination_deg": 53.1581,
      "raan_deg": 344.0386,
      "arg_perigee_deg": 86.6375,
      "mean_anomaly_deg": 273.4794,
      "mean_motion_rev_day": 15.30196051
    },
    {
      "epoch": "2026-04-22T01:28:47.569152Z",
      "apogee_km": 476.06215972660084,
      "perigee_km": 474.4102226525956,
      "latitude_deg": -2.5669879043070832e-06,
      "longitude_deg": 107.16084360407788,
      "height_km": 475.9438692307401,
      "semi_major_axis_km": 6853.3731911895975,
      "eccentricity": 0.00012052,
      "inclination_deg": 53.1581,
      "raan_deg": 339.4877,
      "arg_perigee_deg": 76.6777,
      "mean_anomaly_deg": 283.4358,
      "mean_motion_rev_day": 15.30192926
    },
    {
      "epoch": "2026-04-23T00:59:35.649312Z",
      "apogee_km": 475.9341097280185,
      "perigee_km": 474.46968827208,
      "latitude_deg": 3.173912228494888e-05,
      "longitude_deg": 108.94397361077633,
      "height_km": 475.9862681141701,
      "semi_major_axis_km": 6853.338899000049,
      "eccentricity": 0.00010684,
      "inclination_deg": 53.1577,
      "raan_deg": 334.9368,
      "arg_perigee_deg": 81.0629,
      "mean_anomaly_deg": 279.0493,
      "mean_motion_rev_day": 15.30204411
    }
  ]
}